O3B MPOWER F1           
1 54755U 22174A   23243.82223948 -.00000023  00000+0  00000+0 0  9998
2 54755   0.0437  15.3226 0004644 158.4175  43.5270  5.00118451 14315
